{"type":"FeatureCollection","features":[{"type":"Feature","properties":{"slug":"koshi","name":"Koshi","iso":"NP-P1"},"geometry":{"type":"Polygon","coordinates":[[[86.9041,26.4884],[86.9299,26.4897],[86.9327,26.5169],[87.0153,26.5322],[87.0446,26.5873],[87.0718,26.5858],[87.0915,26.4504],[87.1625,26.4041],[87.2563,26.4112],[87.2659,26.374],[87.341,26.3478],[87.3687,26.4082],[87.4662,26.4404],[87.6046,26.3809],[87.6518,26.3936],[87.6777,26.4355],[87.7671,26.4114],[87.7889,26.4693],[87.8487,26.4366],[87.8881,26.4868],[87.9268,26.4184],[87.9916,26.3927],[88.0069,26.3612],[88.0714,26.4082],[88.1072,26.4752],[88.0903,26.5071],[88.1054,26.561],[88.1605,26.6367],[88.188,26.7717],[88.1735,26.8655],[88.1205,26.9505],[88.1355,26.9849],[88.0776,27.0354],[88.0376,27.0367],[87.9874,27.1194],[88.0194,27.1711],[88.0317,27.2863],[88.0666,27.336],[88.0417,27.3721],[88.0506,27.413],[88.0802,27.4299],[88.0437,27.496],[88.1446,27.6657],[88.1563,27.7366],[88.1973,27.7909],[88.1732,27.8206],[88.2014,27.8427],[88.1351,27.8817],[88.0958,27.8673],[88.0834,27.8959],[88.0284,27.906],[87.9848,27.886],[87.9322,27.9179],[87.8659,27.9108],[87.857,27.948],[87.8318,27.9529],[87.7254,27.8053],[87.6655,27.8069],[87.6651,27.8365],[87.6115,27.8106],[87.5624,27.8671],[87.4498,27.8224],[87.4036,27.8341],[87.4318,27.8424],[87.4186,27.8625],[87.3552,27.8275],[87.2604,27.851],[87.2257,27.8198],[87.1683,27.8217],[87.1159,27.8404],[87.0391,27.9504],[86.9344,27.962],[86.8674,28.0253],[86.7901,28.0189],[86.7525,28.0383],[86.7649,28.0746],[86.7383,28.1038],[86.6891,28.1087],[86.6356,28.0707],[86.5637,28.1086],[86.5653,28.069],[86.5334,28.0466],[86.5128,27.9848],[86.5544,27.9089],[86.5404,27.8149],[86.5671,27.804],[86.5728,27.7546],[86.538,27.6703],[86.4925,27.6137],[86.4348,27.6103],[86.3766,27.5684],[86.3549,27.5249],[86.2637,27.4562],[86.222,27.3821],[86.2157,27.3336],[86.2406,27.2888],[86.2036,27.2503],[86.2301,27.2374],[86.2663,27.2611],[86.3899,27.1799],[86.3679,27.1406],[86.343,27.1473],[86.3064,27.1089],[86.3626,27.0996],[86.3461,27.0661],[86.3826,27.0315],[86.3652,26.98],[86.2835,26.9492],[86.221,26.8885],[86.1559,26.919],[86.2469,26.8638],[86.2875,26.8867],[86.366,26.8726],[86.3844,26.9094],[86.4796,26.8886],[86.5196,26.8316],[86.552,26.8352],[86.5301,26.7912],[86.5779,26.7844],[86.5532,26.746],[86.6105,26.6891],[86.737,26.7123],[86.7531,26.6863],[86.8239,26.7143],[86.8483,26.6913],[86.9213,26.7666],[87.0146,26.6902],[86.9788,26.6252],[86.9923,26.5721],[86.907,26.491],[86.9041,26.4884]]]}},{"type":"Feature","properties":{"slug":"madhesh","name":"Madhesh","iso":"NP-P2"},"geometry":{"type":"Polygon","coordinates":[[[86.2597,26.9191],[86.1876,26.9825],[86.1064,27.0152],[85.9917,27.0248],[85.9381,27.1214],[85.883,27.1464],[85.8625,27.1272],[85.8307,27.1672],[85.7237,27.1952],[85.6298,27.1374],[85.501,27.1436],[85.5009,27.1758],[85.4723,27.1619],[85.3935,27.2104],[85.1791,27.2485],[85.0866,27.3611],[84.9262,27.3642],[84.7909,27.4378],[84.6477,27.4291],[84.5617,27.463],[84.5397,27.3859],[84.4839,27.3661],[84.6224,27.3364],[84.6896,27.2235],[84.6747,27.0965],[84.6428,27.0465],[84.7936,26.9959],[84.8256,27.021],[84.8914,26.9699],[84.9623,26.9605],[84.9676,26.9163],[85.0602,26.887],[85.022,26.8549],[85.1899,26.8701],[85.1768,26.8097],[85.2118,26.758],[85.3345,26.7416],[85.4077,26.7913],[85.4547,26.7819],[85.5753,26.8611],[85.5852,26.8472],[85.6344,26.8723],[85.7344,26.7959],[85.7342,26.6506],[85.8175,26.6028],[85.851,26.6086],[85.8491,26.5689],[85.948,26.6136],[85.9602,26.6514],[86.028,26.6668],[86.2173,26.5885],[86.2522,26.6171],[86.3443,26.6171],[86.5418,26.5385],[86.5703,26.4965],[86.7297,26.4225],[86.7663,26.4594],[86.8334,26.4391],[86.894,26.4621],[86.9237,26.5233],[86.9923,26.5721],[86.9788,26.6252],[87.0134,26.6709],[87.01,26.7109],[86.9905,26.6982],[86.9213,26.7666],[86.8483,26.6913],[86.8239,26.7143],[86.7531,26.6863],[86.737,26.7123],[86.6105,26.6891],[86.5532,26.746],[86.5779,26.7844],[86.5301,26.7912],[86.552,26.8352],[86.5196,26.8316],[86.4796,26.8886],[86.3844,26.9094],[86.366,26.8726],[86.2875,26.8867],[86.2469,26.8638],[86.1562,26.926],[86.221,26.8885],[86.2593,26.9145],[86.2597,26.9191]]]}},{"type":"Feature","properties":{"slug":"bagmati","name":"Bagmati","iso":"NP-P3"},"geometry":{"type":"Polygon","coordinates":[[[86.5156,27.9566],[86.4108,27.9066],[86.3353,27.9651],[86.3188,27.9479],[86.2888,27.9784],[86.2332,27.9742],[86.2042,28.084],[86.2198,28.1117],[86.1867,28.1742],[86.1302,28.1001],[86.0828,28.0909],[86.0794,28.0204],[86.124,27.9276],[86.0648,27.8998],[85.9884,27.9177],[85.9483,27.9421],[85.9771,27.9967],[85.9009,28.0539],[85.8981,28.1091],[85.8701,28.1238],[85.8485,28.1842],[85.7489,28.2382],[85.7115,28.3863],[85.6839,28.3825],[85.6607,28.303],[85.6087,28.2569],[85.6006,28.3044],[85.5065,28.334],[85.4154,28.3271],[85.3776,28.2786],[85.3404,28.304],[85.2729,28.2878],[85.2025,28.3407],[85.1813,28.3243],[85.0805,28.3459],[85.0467,28.3259],[85.0279,28.2624],[84.9647,28.2174],[84.9569,28.1268],[84.8924,28.1],[84.8437,28.1163],[84.8113,28.0029],[84.7459,27.9601],[84.7358,27.8929],[84.782,27.8135],[84.7308,27.7956],[84.6851,27.8103],[84.6209,27.8805],[84.5805,27.8744],[84.5171,27.8162],[84.4451,27.8229],[84.4313,27.7869],[84.472,27.7541],[84.422,27.7413],[84.43,27.7051],[84.3789,27.6813],[84.3437,27.7023],[84.2067,27.6388],[84.1147,27.5533],[83.9245,27.5446],[83.9256,27.5148],[83.9695,27.5154],[83.9312,27.4496],[84.0272,27.4337],[84.0955,27.4897],[84.0979,27.5173],[84.1458,27.5189],[84.1489,27.486],[84.2058,27.4697],[84.2086,27.4427],[84.2543,27.4521],[84.2919,27.385],[84.4696,27.3552],[84.5397,27.3859],[84.5617,27.463],[84.6477,27.4291],[84.7909,27.4378],[84.9262,27.3642],[85.0866,27.3611],[85.1791,27.2485],[85.3935,27.2104],[85.4723,27.1619],[85.5009,27.1758],[85.501,27.1436],[85.6298,27.1374],[85.7237,27.1952],[85.8307,27.1672],[85.8625,27.1272],[85.883,27.1464],[85.9381,27.1214],[85.9917,27.0248],[86.1064,27.0152],[86.1876,26.9825],[86.2597,26.9191],[86.3652,26.98],[86.3826,27.0315],[86.3461,27.0661],[86.3626,27.0996],[86.3064,27.1089],[86.343,27.1473],[86.3679,27.1406],[86.3899,27.1799],[86.2663,27.2611],[86.2301,27.2374],[86.2036,27.2503],[86.2406,27.2888],[86.2157,27.3336],[86.222,27.3821],[86.2637,27.4562],[86.3549,27.5249],[86.3766,27.5684],[86.4348,27.6103],[86.4925,27.6137],[86.538,27.6703],[86.5728,27.7546],[86.5671,27.804],[86.5404,27.8149],[86.5544,27.9089],[86.5182,27.9532],[86.5156,27.9566]]]}},{"type":"Feature","properties":{"slug":"gandaki","name":"Gandaki","iso":"NP-P4"},"geometry":{"type":"Polygon","coordinates":[[[85.108,28.3466],[85.1266,28.3924],[85.0995,28.4569],[85.1869,28.5343],[85.1884,28.6413],[85.1149,28.6868],[85.0586,28.6825],[84.9834,28.5914],[84.901,28.5933],[84.8571,28.5706],[84.6948,28.6365],[84.705,28.6711],[84.6263,28.7365],[84.4604,28.7514],[84.4365,28.7695],[84.4353,28.8209],[84.4006,28.8303],[84.409,28.8536],[84.2258,28.8943],[84.2479,29.0373],[84.1897,29.047],[84.201,29.124],[84.1748,29.1309],[84.1623,29.1853],[84.201,29.2401],[84.1163,29.2442],[84.1202,29.2797],[84.0158,29.289],[83.9759,29.3287],[83.9048,29.3258],[83.8126,29.302],[83.7973,29.2501],[83.7113,29.2446],[83.6559,29.204],[83.6804,29.1235],[83.6156,29.0984],[83.6315,29.065],[83.615,28.9878],[83.4995,28.8773],[83.4835,28.7829],[83.2769,28.722],[83.1454,28.7472],[83.1526,28.7012],[83.1189,28.6733],[83.1159,28.6315],[82.977,28.629],[82.9526,28.5981],[82.9855,28.5709],[82.9738,28.5423],[82.9238,28.5676],[82.9141,28.5276],[82.8774,28.5154],[82.9121,28.4794],[82.8787,28.4734],[82.9162,28.4027],[82.9436,28.3985],[82.9547,28.3602],[83.0669,28.3134],[83.0936,28.257],[83.1848,28.2707],[83.2737,28.1876],[83.3555,28.1975],[83.4233,28.1252],[83.5543,28.1172],[83.5807,28.0776],[83.5616,28.0358],[83.6033,27.9973],[83.531,27.9648],[83.4829,27.9817],[83.4403,27.9328],[83.4839,27.9227],[83.5087,27.9408],[83.5241,27.9242],[83.571,27.9431],[83.6262,27.9261],[83.6343,27.8994],[83.6763,27.9275],[83.7623,27.91],[83.8072,27.8733],[83.8776,27.8884],[84.0285,27.8565],[83.99,27.7493],[83.9242,27.7269],[83.845,27.7351],[83.8463,27.7095],[83.6771,27.7186],[83.7046,27.6829],[83.6954,27.6615],[83.8119,27.6624],[83.7899,27.6064],[83.8362,27.5858],[83.8361,27.5451],[83.8472,27.5604],[83.8824,27.5279],[83.8956,27.4378],[83.9354,27.451],[83.9388,27.4916],[83.9681,27.5083],[83.953,27.5276],[83.9256,27.5148],[83.9245,27.5446],[84.1147,27.5533],[84.2067,27.6388],[84.3437,27.7023],[84.3789,27.6813],[84.43,27.7051],[84.422,27.7413],[84.472,27.7541],[84.4313,27.7869],[84.4451,27.8229],[84.5171,27.8162],[84.5805,27.8744],[84.6209,27.8805],[84.6851,27.8103],[84.7308,27.7956],[84.782,27.8135],[84.7358,27.8929],[84.7459,27.9601],[84.8113,28.0029],[84.8437,28.1163],[84.8924,28.1],[84.9569,28.1268],[84.9647,28.2174],[85.0279,28.2624],[85.0467,28.3259],[85.093,28.3447],[85.108,28.3466]]]}},{"type":"Feature","properties":{"slug":"lumbini","name":"Lumbini","iso":"NP-P5"},"geometry":{"type":"Polygon","coordinates":[[[83.1454,28.7472],[83.1137,28.7436],[83.0793,28.7862],[82.9809,28.8008],[82.9472,28.829],[82.8171,28.8313],[82.7658,28.8086],[82.7418,28.8459],[82.6442,28.8672],[82.6197,28.8091],[82.5619,28.7678],[82.566,28.7439],[82.6014,28.7429],[82.6159,28.6898],[82.5547,28.6441],[82.4899,28.6593],[82.5084,28.6278],[82.5794,28.6138],[82.5806,28.5862],[82.463,28.5213],[82.4182,28.5288],[82.3766,28.4304],[82.3504,28.4219],[82.3836,28.3728],[82.3635,28.3196],[82.4373,28.2467],[82.3965,28.1692],[82.3004,28.246],[82.1438,28.2372],[82.1008,28.259],[82.0422,28.2302],[82.0076,28.1511],[81.9216,28.2269],[81.8609,28.2387],[81.8436,28.272],[81.7937,28.2739],[81.7451,28.3133],[81.7667,28.3702],[81.6585,28.4155],[81.438,28.5596],[81.401,28.6069],[81.3164,28.6368],[81.3074,28.673],[81.2853,28.6733],[81.2489,28.5945],[81.0646,28.4209],[81.0799,28.385],[81.2135,28.3583],[81.2328,28.289],[81.3206,28.1973],[81.3213,28.1689],[81.3019,28.1661],[81.328,28.1483],[81.3181,28.1336],[81.3714,28.1425],[81.3748,28.177],[81.4448,28.162],[81.4841,28.1183],[81.4785,28.0826],[81.6244,28.0015],[81.6984,27.9883],[81.8856,27.8571],[81.9262,27.8598],[81.9683,27.929],[82.071,27.9227],[82.1234,27.8651],[82.2083,27.8432],[82.4488,27.6788],[82.7081,27.7219],[82.7118,27.6651],[82.7559,27.5878],[82.7358,27.5026],[82.9295,27.5012],[82.9543,27.468],[83.0342,27.4489],[83.1879,27.4545],[83.3048,27.3315],[83.3593,27.3433],[83.4097,27.4127],[83.3843,27.4363],[83.402,27.4577],[83.3889,27.4797],[83.6148,27.4696],[83.8628,27.3467],[83.9062,27.382],[83.8727,27.3928],[83.8675,27.4276],[83.8956,27.4378],[83.8747,27.4894],[83.8977,27.4988],[83.8507,27.5591],[83.8361,27.5451],[83.8362,27.5858],[83.7899,27.6064],[83.8119,27.6624],[83.6954,27.6615],[83.7046,27.6829],[83.6771,27.7186],[83.8463,27.7095],[83.845,27.7351],[83.9242,27.7269],[83.99,27.7493],[84.0285,27.8565],[83.8776,27.8884],[83.8072,27.8733],[83.7623,27.91],[83.6763,27.9275],[83.6343,27.8994],[83.6262,27.9261],[83.571,27.9431],[83.4489,27.9285],[83.4829,27.9817],[83.531,27.9648],[83.6033,27.9973],[83.5616,28.0358],[83.5807,28.0776],[83.5543,28.1172],[83.4233,28.1252],[83.3555,28.1975],[83.2737,28.1876],[83.1848,28.2707],[83.0936,28.257],[83.0616,28.3177],[82.9547,28.3602],[82.8861,28.4529],[82.8793,28.4764],[82.9121,28.4794],[82.8774,28.5154],[82.9141,28.5276],[82.9238,28.5676],[82.9738,28.5423],[82.9855,28.5709],[82.9526,28.5981],[82.977,28.629],[83.1159,28.6315],[83.1189,28.6733],[83.1526,28.7012],[83.1428,28.7421],[83.1454,28.7472]]]}},{"type":"Feature","properties":{"slug":"karnali","name":"Karnali","iso":"NP-P6"},"geometry":{"type":"Polygon","coordinates":[[[83.6574,29.1762],[83.6334,29.1585],[83.5197,29.2177],[83.5148,29.2559],[83.4384,29.3087],[83.4143,29.4209],[83.3715,29.4286],[83.3445,29.4948],[83.2675,29.5075],[83.2554,29.5568],[83.284,29.5629],[83.2156,29.5885],[83.2181,29.6055],[83.164,29.5944],[83.1645,29.6169],[83.1204,29.6286],[83.0857,29.6028],[83.0086,29.6726],[82.9557,29.6627],[82.9355,29.7055],[82.8265,29.6899],[82.8179,29.7212],[82.7629,29.7312],[82.7522,29.7656],[82.6901,29.7632],[82.6941,29.7912],[82.7371,29.8136],[82.7266,29.8353],[82.6972,29.8554],[82.621,29.8373],[82.6423,29.8705],[82.6024,29.8891],[82.5494,29.9632],[82.4993,29.946],[82.3955,30.024],[82.363,30.0104],[82.3341,30.0469],[82.2985,30.0379],[82.2467,30.0752],[82.1719,30.0652],[82.1866,30.1109],[82.1708,30.122],[82.2055,30.1539],[82.1821,30.1609],[82.1845,30.1908],[82.1391,30.1989],[82.0984,30.2393],[82.1283,30.3023],[82.1047,30.3496],[82.0766,30.3593],[82.056,30.3326],[82.0163,30.3442],[81.9886,30.3208],[81.9493,30.3589],[81.7511,30.3888],[81.6202,30.4473],[81.6068,30.4122],[81.5608,30.428],[81.5518,30.3698],[81.4083,30.4213],[81.4007,30.3962],[81.4293,30.3834],[81.3953,30.3679],[81.3964,30.3234],[81.4233,30.3051],[81.4019,30.2931],[81.4166,30.2817],[81.392,30.2505],[81.3965,30.209],[81.3321,30.1532],[81.2581,30.1513],[81.2905,30.1125],[81.272,30.0453],[81.4572,30.001],[81.4707,29.8898],[81.504,29.8929],[81.5169,29.9228],[81.6456,29.9482],[81.6878,29.9491],[81.716,29.9094],[81.7989,29.902],[81.7804,29.8071],[81.7396,29.7922],[81.6971,29.6783],[81.7104,29.6263],[81.7986,29.576],[81.7929,29.5306],[81.7625,29.5054],[81.8039,29.4752],[81.7979,29.4071],[81.7611,29.3866],[81.7403,29.3343],[81.6685,29.3171],[81.6347,29.3644],[81.5818,29.3648],[81.4681,29.2719],[81.4996,29.2389],[81.4821,29.2006],[81.497,29.1548],[81.5656,29.1262],[81.4694,29.0781],[81.4101,28.997],[81.509,28.8898],[81.5783,28.7555],[81.5205,28.7491],[81.5224,28.8033],[81.4318,28.9107],[81.3552,28.8898],[81.3021,28.9258],[81.2661,28.9027],[81.2042,28.9081],[81.1192,28.9635],[81.0499,28.9783],[80.9811,28.9388],[81.1024,28.8448],[81.1434,28.8731],[81.153,28.8304],[81.2034,28.8168],[81.2065,28.8621],[81.2421,28.8109],[81.2259,28.7952],[81.2665,28.7042],[81.2853,28.6733],[81.3199,28.6687],[81.3164,28.6368],[81.401,28.6069],[81.438,28.5596],[81.6585,28.4155],[81.7667,28.3702],[81.7451,28.3133],[81.7937,28.2739],[81.8436,28.272],[81.8609,28.2387],[81.9216,28.2269],[82.0076,28.1511],[82.0422,28.2302],[82.1008,28.259],[82.1438,28.2372],[82.3004,28.246],[82.3985,28.1701],[82.4068,28.2207],[82.4373,28.2467],[82.3635,28.3196],[82.3836,28.3728],[82.3504,28.4219],[82.3766,28.4304],[82.4182,28.5288],[82.463,28.5213],[82.5806,28.5862],[82.5794,28.6138],[82.5084,28.6278],[82.4899,28.6593],[82.5547,28.6441],[82.6159,28.6898],[82.6014,28.7429],[82.566,28.7439],[82.5619,28.7678],[82.6197,28.8091],[82.6442,28.8672],[82.7418,28.8459],[82.7658,28.8086],[82.8171,28.8313],[82.9472,28.829],[82.9809,28.8008],[83.0793,28.7862],[83.1137,28.7436],[83.2769,28.722],[83.362,28.7342],[83.3885,28.7631],[83.4835,28.7829],[83.4995,28.8773],[83.615,28.9878],[83.6315,29.065],[83.6156,29.0984],[83.6804,29.1235],[83.6661,29.1698],[83.6574,29.1762]]]}},{"type":"Feature","properties":{"slug":"sudurpashchim","name":"Sudurpashchim","iso":"NP-P7"},"geometry":{"type":"Polygon","coordinates":[[[81.2853,28.6733],[81.2065,28.8621],[81.2034,28.8168],[81.153,28.8304],[81.1434,28.8731],[81.1024,28.8448],[80.9811,28.9388],[81.0499,28.9783],[81.1192,28.9635],[81.2042,28.9081],[81.2661,28.9027],[81.3021,28.9258],[81.3552,28.8898],[81.4318,28.9107],[81.5224,28.8033],[81.5205,28.7491],[81.5783,28.7555],[81.509,28.8898],[81.4101,28.997],[81.4694,29.0781],[81.5656,29.1262],[81.4873,29.173],[81.4996,29.2389],[81.4681,29.2719],[81.508,29.3146],[81.6137,29.3708],[81.6431,29.3562],[81.6477,29.3215],[81.7403,29.3343],[81.7611,29.3866],[81.7979,29.4071],[81.8039,29.4752],[81.7625,29.5054],[81.7929,29.5306],[81.7986,29.576],[81.7104,29.6263],[81.6971,29.6783],[81.7396,29.7922],[81.7804,29.8071],[81.7989,29.902],[81.716,29.9094],[81.6878,29.9491],[81.6456,29.9482],[81.5169,29.9228],[81.504,29.8929],[81.4707,29.8898],[81.4632,29.9952],[81.4126,30.0186],[81.3766,30.0065],[81.272,30.0453],[81.2317,30.0077],[81.1334,30.016],[81.0909,30.0542],[81.1081,30.088],[81.0812,30.1005],[81.0832,30.1482],[81.0336,30.197],[81.0451,30.2101],[80.9887,30.2467],[80.8973,30.2123],[80.8632,30.1695],[80.8776,30.1285],[80.7613,30.0495],[80.7447,30.004],[80.6742,29.9572],[80.5955,29.953],[80.5528,29.8504],[80.4934,29.7955],[80.4355,29.8061],[80.3681,29.7506],[80.3846,29.6744],[80.4203,29.6391],[80.4081,29.5954],[80.3428,29.5529],[80.3497,29.5189],[80.2867,29.4769],[80.3026,29.4531],[80.243,29.4438],[80.2417,29.4116],[80.317,29.3148],[80.2974,29.2051],[80.2484,29.221],[80.2718,29.1421],[80.2334,29.1185],[80.1836,29.1371],[80.1448,29.1034],[80.1357,29.0073],[80.0586,28.9165],[80.0648,28.8374],[80.1182,28.8288],[80.2162,28.7554],[80.2516,28.7574],[80.2563,28.7294],[80.3174,28.6999],[80.3608,28.6356],[80.4517,28.6287],[80.4683,28.5834],[80.5177,28.5519],[80.5062,28.671],[80.5399,28.6907],[80.5905,28.6798],[80.5898,28.6478],[80.6677,28.6419],[80.6903,28.5871],[80.768,28.5657],[80.7891,28.5244],[80.8656,28.4896],[80.8962,28.5057],[80.9157,28.4577],[80.9799,28.4553],[80.9654,28.4378],[81.0175,28.4517],[81.0324,28.3988],[81.0674,28.3945],[81.0906,28.457],[81.2489,28.5945],[81.2874,28.6635],[81.2853,28.6733]]]}}]}