{"type":"FeatureCollection","features":[{"type":"Feature","properties":{},"geometry":{"type":"Polygon","coordinates":[[[-180,-85],[180,-85],[180,85],[-180,85],[-180,-85]],[[86.89257,26.48144],[86.89594,26.47604],[86.89473,26.46885],[86.89758,26.467],[86.89617,26.46158],[86.88697,26.46102],[86.88172,26.45673],[86.87762,26.45729],[86.87842,26.45528],[86.87537,26.45372],[86.86338,26.45723],[86.85847,26.44815],[86.84834,26.4479],[86.84927,26.44157],[86.84498,26.43985],[86.84036,26.44222],[86.83585,26.43869],[86.7687,26.45897],[86.76496,26.45552],[86.76654,26.45089],[86.76282,26.45123],[86.76266,26.44778],[86.75595,26.44613],[86.75547,26.44168],[86.74639,26.43463],[86.74951,26.43327],[86.74944,26.42818],[86.73333,26.42199],[86.73169,26.42245],[86.73281,26.42571],[86.72748,26.42583],[86.72255,26.43454],[86.70222,26.43703],[86.69577,26.45085],[86.64242,26.46304],[86.63956,26.46602],[86.63577,26.4642],[86.63261,26.46832],[86.63225,26.46626],[86.62984,26.46667],[86.63225,26.46922],[86.62853,26.46917],[86.63175,26.47771],[86.62941,26.47669],[86.62841,26.48038],[86.62399,26.48141],[86.623,26.48405],[86.57266,26.49616],[86.56681,26.5007],[86.56376,26.50929],[86.55698,26.51582],[86.55764,26.52183],[86.55333,26.52429],[86.55294,26.52999],[86.54423,26.53815],[86.52624,26.54316],[86.5181,26.53889],[86.49968,26.54199],[86.45787,26.56778],[86.43282,26.57262],[86.39734,26.58481],[86.39927,26.59322],[86.35884,26.60392],[86.34327,26.6057],[86.34133,26.60823],[86.34718,26.61643],[86.33565,26.61864],[86.31022,26.61968],[86.29523,26.61295],[86.27798,26.61702],[86.25562,26.61448],[86.25451,26.61676],[86.25013,26.61201],[86.25075,26.60834],[86.24622,26.60797],[86.24555,26.60247],[86.24254,26.60313],[86.23687,26.59763],[86.23677,26.59047],[86.23368,26.59276],[86.21963,26.58812],[86.20772,26.59632],[86.20395,26.5941],[86.20298,26.59686],[86.20029,26.59314],[86.19799,26.59406],[86.1978,26.60773],[86.19254,26.61153],[86.19626,26.61152],[86.1946,26.61438],[86.17615,26.61365],[86.17389,26.61681],[86.17003,26.61403],[86.16366,26.61459],[86.15741,26.60962],[86.14811,26.60838],[86.1448,26.60472],[86.13837,26.60623],[86.14326,26.61635],[86.14079,26.62863],[86.12172,26.62972],[86.07628,26.64942],[86.07031,26.65757],[86.02932,26.66637],[86.02106,26.66081],[86.01418,26.65925],[86.01214,26.65361],[86.00819,26.65598],[86.00213,26.6546],[85.97821,26.65792],[85.96994,26.65163],[85.9625,26.65105],[85.95564,26.64357],[85.95476,26.63713],[85.95787,26.63028],[85.9539,26.62402],[85.94846,26.62088],[85.9503,26.61319],[85.94263,26.61293],[85.94035,26.6159],[85.93505,26.61321],[85.93085,26.6162],[85.92947,26.60934],[85.91622,26.60859],[85.91537,26.60425],[85.9027,26.60007],[85.903,26.59473],[85.894,26.59412],[85.89008,26.58288],[85.8818,26.5835],[85.875,26.57835],[85.87293,26.57932],[85.87051,26.57463],[85.86083,26.56858],[85.85915,26.57173],[85.85143,26.56856],[85.85063,26.57656],[85.86007,26.58962],[85.85329,26.60821],[85.8335,26.611],[85.83292,26.60133],[85.81981,26.60245],[85.80562,26.61462],[85.80369,26.62398],[85.77158,26.62963],[85.76197,26.63593],[85.75062,26.63864],[85.73828,26.65093],[85.73645,26.65023],[85.73765,26.65211],[85.73452,26.65523],[85.73722,26.65723],[85.73875,26.66365],[85.73231,26.66534],[85.73311,26.66715],[85.72773,26.67011],[85.72882,26.67354],[85.72582,26.67395],[85.72766,26.68487],[85.72564,26.68654],[85.72759,26.69512],[85.72581,26.69947],[85.72869,26.70619],[85.72718,26.70934],[85.73016,26.71751],[85.72828,26.72102],[85.73178,26.72489],[85.73053,26.72944],[85.73371,26.73032],[85.73215,26.73425],[85.73637,26.73715],[85.73101,26.74971],[85.73729,26.77716],[85.73672,26.79558],[85.73084,26.80253],[85.73099,26.80784],[85.72298,26.82026],[85.70656,26.83192],[85.68168,26.84341],[85.64463,26.85295],[85.63668,26.87195],[85.62574,26.8733],[85.60919,26.85698],[85.58745,26.84691],[85.58863,26.85233],[85.58603,26.85787],[85.58044,26.8561],[85.58043,26.85925],[85.57759,26.86077],[85.56797,26.84067],[85.5599,26.84373],[85.55567,26.83403],[85.54525,26.8381],[85.52206,26.81413],[85.50975,26.81653],[85.50001,26.81177],[85.49811,26.79672],[85.48206,26.80207],[85.47985,26.79218],[85.46647,26.78861],[85.45699,26.78159],[85.43483,26.78983],[85.43199,26.78632],[85.42773,26.78563],[85.42006,26.7901],[85.40996,26.79095],[85.40002,26.77822],[85.38647,26.77388],[85.37748,26.76038],[85.37162,26.75796],[85.36384,26.76281],[85.35753,26.75998],[85.33675,26.74124],[85.32508,26.74458],[85.32149,26.74873],[85.3089,26.75191],[85.26253,26.75494],[85.24245,26.76161],[85.23368,26.76197],[85.214,26.75761],[85.19935,26.76965],[85.19387,26.78185],[85.19704,26.78407],[85.19559,26.79029],[85.18883,26.79063],[85.18911,26.79476],[85.18257,26.79547],[85.18172,26.79809],[85.18466,26.80057],[85.17897,26.80939],[85.17922,26.81486],[85.1934,26.83095],[85.19506,26.86269],[85.19209,26.86981],[85.16945,26.86822],[85.14223,26.87087],[85.13637,26.86752],[85.11336,26.87218],[85.10171,26.8708],[85.0983,26.86678],[85.09249,26.86883],[85.08891,26.86711],[85.0879,26.86426],[85.09156,26.85929],[85.08656,26.85518],[85.08942,26.85261],[85.08048,26.85852],[85.08043,26.85553],[85.06866,26.85371],[85.06616,26.84939],[85.06377,26.85358],[85.06686,26.85657],[85.06471,26.85614],[85.06491,26.85793],[85.06299,26.85364],[85.06012,26.85581],[85.05962,26.84889],[85.02422,26.8546],[85.03096,26.85903],[85.02881,26.86625],[85.03237,26.86741],[85.0301,26.87036],[85.03148,26.875],[85.03831,26.87483],[85.03965,26.87781],[85.04389,26.87431],[85.04534,26.87938],[85.0481,26.87829],[85.05444,26.88099],[85.05203,26.88206],[85.05057,26.88494],[85.05285,26.88294],[85.05604,26.88446],[85.05739,26.88117],[85.06207,26.8851],[85.06244,26.88667],[85.05396,26.88592],[85.0554,26.88878],[85.00608,26.89482],[84.99492,26.90263],[84.99803,26.90636],[85.0044,26.90313],[85.00171,26.91191],[84.96981,26.91599],[84.97288,26.91681],[84.97406,26.92171],[84.9716,26.92471],[84.97409,26.92591],[84.97236,26.92871],[84.97878,26.93179],[84.9804,26.93561],[84.97701,26.9393],[84.98047,26.94002],[84.96451,26.96022],[84.95553,26.95946],[84.9316,26.96842],[84.91213,26.96771],[84.9016,26.96957],[84.8978,26.97267],[84.89426,26.97202],[84.89363,26.96955],[84.89075,26.97725],[84.86695,26.98393],[84.86119,26.98886],[84.85826,26.98628],[84.85955,26.99041],[84.85706,26.99228],[84.85985,26.99234],[84.85998,26.99744],[84.85228,26.99812],[84.85687,27.00796],[84.82776,27.02066],[84.81892,27.02054],[84.81564,27.01795],[84.81423,27.02052],[84.8146,27.0156],[84.81122,27.01797],[84.8091,27.01442],[84.81307,27.01359],[84.81203,27.01066],[84.80893,27.01027],[84.81048,27.00753],[84.80354,27.00413],[84.80243,27.00047],[84.79929,27.00391],[84.79574,26.99555],[84.79275,26.99713],[84.79309,26.99937],[84.79167,26.9969],[84.78847,26.99826],[84.79096,27.00868],[84.78798,27.01072],[84.78639,27.00777],[84.78481,27.01389],[84.77524,27.01757],[84.76687,27.01271],[84.76273,27.0049],[84.75892,27.00258],[84.73183,27.01471],[84.72355,27.01407],[84.71622,27.02123],[84.71176,27.0212],[84.70359,27.02676],[84.68207,27.03198],[84.64493,27.04621],[84.64539,27.05077],[84.64849,27.05111],[84.64792,27.05836],[84.64513,27.05944],[84.64748,27.06368],[84.64562,27.06573],[84.64957,27.07088],[84.64848,27.07533],[84.65084,27.07448],[84.65181,27.07702],[84.65524,27.07744],[84.65517,27.08047],[84.66043,27.07934],[84.65628,27.08169],[84.65732,27.08408],[84.65996,27.08232],[84.66695,27.08614],[84.66539,27.08896],[84.66821,27.08743],[84.66867,27.09026],[84.6725,27.09071],[84.66663,27.09231],[84.66695,27.0944],[84.66974,27.09333],[84.67209,27.09791],[84.67681,27.09621],[84.67697,27.10851],[84.67316,27.10698],[84.67206,27.11016],[84.67914,27.11494],[84.67742,27.12057],[84.68106,27.12718],[84.68135,27.13248],[84.67953,27.13312],[84.68573,27.14338],[84.68539,27.14973],[84.68253,27.15175],[84.68892,27.15828],[84.67909,27.16232],[84.67953,27.16624],[84.68307,27.16856],[84.67743,27.17067],[84.68586,27.17768],[84.68366,27.17981],[84.68755,27.18059],[84.68597,27.184],[84.6814,27.18543],[84.68573,27.19635],[84.6827,27.20043],[84.68945,27.20886],[84.68687,27.21279],[84.69313,27.21475],[84.69173,27.22326],[84.6874,27.22621],[84.6841,27.23641],[84.65017,27.29764],[84.62452,27.33609],[84.62057,27.3376],[84.60991,27.33517],[84.56718,27.34732],[84.50587,27.35445],[84.48802,27.35831],[84.47811,27.36225],[84.47298,27.35477],[84.46838,27.35644],[84.46689,27.35952],[84.44858,27.36352],[84.44332,27.36999],[84.42638,27.37176],[84.4125,27.36829],[84.39918,27.37015],[84.39397,27.36796],[84.38974,27.37212],[84.37497,27.37642],[84.35827,27.37323],[84.33471,27.37718],[84.30268,27.39021],[84.29699,27.38421],[84.29397,27.38473],[84.2846,27.39631],[84.27852,27.39543],[84.27766,27.40085],[84.28127,27.40647],[84.28028,27.41544],[84.2757,27.42113],[84.27473,27.42861],[84.26078,27.43855],[84.2616,27.44561],[84.25637,27.45187],[84.24624,27.45448],[84.24128,27.45232],[84.2338,27.45609],[84.22304,27.44744],[84.22165,27.4402],[84.21066,27.4424],[84.20873,27.4464],[84.2099,27.45608],[84.20599,27.45938],[84.21095,27.46516],[84.20793,27.46947],[84.19659,27.47306],[84.19324,27.46904],[84.19083,27.4719],[84.17367,27.47549],[84.17321,27.4789],[84.16574,27.48362],[84.15101,27.48574],[84.14652,27.49672],[84.15205,27.50073],[84.15045,27.50283],[84.1532,27.51625],[84.14791,27.51862],[84.12628,27.51087],[84.11963,27.51348],[84.11875,27.51907],[84.11301,27.51923],[84.11074,27.52155],[84.09995,27.51703],[84.10185,27.51022],[84.09756,27.48939],[84.08613,27.48306],[84.07284,27.48155],[84.06878,27.46945],[84.06062,27.46102],[84.06385,27.45571],[84.05678,27.4492],[84.05417,27.44255],[84.0338,27.44143],[84.03312,27.43881],[84.02799,27.43825],[84.02929,27.43344],[84.02481,27.43286],[84.02071,27.43585],[84.01788,27.43457],[84.01401,27.43866],[84.01132,27.43743],[84.00969,27.44031],[84.00737,27.43949],[84.00732,27.44204],[84.00021,27.44045],[83.99826,27.44597],[83.98608,27.44367],[83.97965,27.43912],[83.97989,27.44226],[83.97472,27.44188],[83.96818,27.4464],[83.96466,27.44377],[83.94801,27.44096],[83.94427,27.44754],[83.9336,27.44932],[83.91793,27.44206],[83.89761,27.43756],[83.8898,27.44631],[83.88924,27.45554],[83.88924,27.45554],[83.8898,27.44631],[83.89761,27.43756],[83.88043,27.43365],[83.86941,27.42702],[83.87762,27.40571],[83.8749,27.39216],[83.9078,27.38839],[83.90635,27.37753],[83.89419,27.36752],[83.88989,27.35817],[83.86467,27.34647],[83.83205,27.3701],[83.61687,27.46935],[83.3909,27.47949],[83.39441,27.47626],[83.39066,27.4705],[83.39761,27.46949],[83.39756,27.46659],[83.40003,27.46538],[83.40459,27.46616],[83.40184,27.46342],[83.40398,27.45745],[83.39807,27.44649],[83.39365,27.44658],[83.38597,27.44219],[83.38842,27.43913],[83.38628,27.436],[83.39384,27.42957],[83.39527,27.42451],[83.40313,27.42075],[83.40181,27.41893],[83.40761,27.41862],[83.41164,27.41246],[83.40845,27.41171],[83.40448,27.40072],[83.38686,27.39018],[83.38711,27.38576],[83.39009,27.38354],[83.3885,27.38034],[83.39015,27.37569],[83.38488,27.37077],[83.37682,27.36977],[83.37439,27.36475],[83.3758,27.35711],[83.37173,27.35797],[83.35999,27.35057],[83.36124,27.34306],[83.35797,27.34443],[83.35318,27.34242],[83.35447,27.3398],[83.34608,27.33803],[83.34526,27.33487],[83.33959,27.33261],[83.32024,27.33722],[83.31753,27.33265],[83.31958,27.32996],[83.31013,27.33336],[83.30679,27.33121],[83.30252,27.33426],[83.29364,27.33481],[83.2946,27.33618],[83.27465,27.35266],[83.26764,27.36536],[83.2743,27.38343],[83.24212,27.40636],[83.21966,27.41711],[83.18988,27.45424],[83.1665,27.45746],[83.03614,27.44869],[83.021,27.45385],[82.9562,27.46776],[82.94674,27.47687],[82.94155,27.49116],[82.93142,27.501],[82.87234,27.49843],[82.83442,27.50188],[82.8039,27.49635],[82.78728,27.50002],[82.73738,27.50249],[82.73711,27.50825],[82.73958,27.50843],[82.73874,27.51787],[82.74507,27.51654],[82.74402,27.52096],[82.74905,27.5194],[82.75143,27.52265],[82.74712,27.52879],[82.74919,27.53139],[82.74648,27.52963],[82.74703,27.53208],[82.744,27.53193],[82.74653,27.5342],[82.74249,27.53683],[82.74512,27.54133],[82.74317,27.54246],[82.74387,27.54614],[82.73976,27.54644],[82.74296,27.5498],[82.74013,27.55188],[82.74905,27.55488],[82.74553,27.56074],[82.75326,27.56509],[82.7497,27.57179],[82.75438,27.58469],[82.75779,27.58758],[82.75218,27.59334],[82.74688,27.59515],[82.74736,27.60013],[82.73686,27.60947],[82.73822,27.61125],[82.73502,27.61878],[82.73865,27.62154],[82.73274,27.62385],[82.73864,27.62595],[82.73559,27.62839],[82.74016,27.63181],[82.73698,27.6354],[82.73954,27.6374],[82.73824,27.64296],[82.73535,27.64251],[82.73502,27.64624],[82.73007,27.64542],[82.73335,27.64885],[82.72754,27.65823],[82.72234,27.65715],[82.72229,27.66149],[82.7137,27.66491],[82.71782,27.6679],[82.71517,27.67075],[82.71794,27.67237],[82.71681,27.68126],[82.72025,27.68727],[82.71189,27.69523],[82.70785,27.70269],[82.70996,27.72171],[82.70711,27.71639],[82.70391,27.71618],[82.7012,27.7218],[82.69121,27.71495],[82.68264,27.71358],[82.66845,27.71548],[82.66616,27.72191],[82.65718,27.71313],[82.64046,27.70894],[82.62977,27.71134],[82.62079,27.70208],[82.60698,27.70578],[82.60204,27.70405],[82.59562,27.69676],[82.58687,27.69843],[82.54308,27.68555],[82.51818,27.69025],[82.49441,27.68402],[82.49199,27.68106],[82.48594,27.68062],[82.48384,27.68264],[82.47515,27.67633],[82.45067,27.67854],[82.40355,27.70272],[82.38427,27.72017],[82.36909,27.7425],[82.3385,27.75466],[82.30581,27.77246],[82.25468,27.80999],[82.23239,27.82064],[82.21017,27.84298],[82.17897,27.85458],[82.1559,27.86606],[82.15191,27.85778],[82.12525,27.86489],[82.11611,27.87742],[82.09329,27.89453],[82.09198,27.89927],[82.07285,27.92251],[82.06438,27.92158],[81.99306,27.92909],[81.9701,27.92883],[81.93998,27.89362],[81.93992,27.8878],[81.9319,27.88252],[81.92728,27.87567],[81.92803,27.85965],[81.90307,27.85354],[81.88735,27.85687],[81.87545,27.86929],[81.84187,27.89094],[81.83458,27.89795],[81.823,27.90334],[81.80675,27.90326],[81.70017,27.98809],[81.6453,27.99371],[81.62982,28.00148],[81.62617,28.00127],[81.61891,28.0103],[81.58847,28.02468],[81.54911,28.0491],[81.48021,28.08244],[81.48158,28.11],[81.48585,28.11815],[81.46947,28.12711],[81.45174,28.14079],[81.45193,28.15056],[81.44777,28.15587],[81.44767,28.16122],[81.41666,28.17416],[81.39172,28.17368],[81.37649,28.17686],[81.37582,28.17305],[81.36869,28.16526],[81.3702,28.16089],[81.37891,28.15862],[81.38016,28.15541],[81.37308,28.14229],[81.33623,28.1401],[81.31981,28.13346],[81.31722,28.13688],[81.32014,28.14514],[81.32969,28.14819],[81.32195,28.16016],[81.31242,28.15548],[81.31152,28.1606],[81.30489,28.16293],[81.30359,28.16599],[81.30623,28.16842],[81.32303,28.16874],[81.32653,28.17495],[81.32014,28.18229],[81.32237,28.19717],[81.30138,28.21976],[81.29368,28.22279],[81.28787,28.22844],[81.2345,28.2889],[81.23634,28.32457],[81.22133,28.3448],[81.21517,28.3582],[81.2052,28.36194],[81.08158,28.38487],[81.06908,28.39438],[81.04769,28.40993],[81.03657,28.4133],[81.03407,28.39868],[81.02276,28.41027],[81.01849,28.4157],[81.03552,28.42786],[81.03133,28.43849],[81.02095,28.43162],[81.01474,28.43816],[81.01921,28.45157],[81.00145,28.45394],[80.99092,28.44158],[80.97959,28.44243],[80.98084,28.43428],[80.96705,28.43767],[80.96982,28.44282],[80.96659,28.44466],[80.98158,28.45519],[80.96879,28.45693],[80.96582,28.44952],[80.95348,28.44747],[80.95333,28.45553],[80.94645,28.45466],[80.93401,28.45853],[80.94698,28.46606],[80.94428,28.46838],[80.93412,28.46299],[80.93232,28.45755],[80.91932,28.45968],[80.9213,28.46369],[80.91621,28.46775],[80.91737,28.45758],[80.90744,28.46572],[80.90315,28.48563],[80.9087,28.48962],[80.91034,28.49751],[80.90149,28.50044],[80.89783,28.50559],[80.87756,28.5097],[80.86329,28.50408],[80.86727,28.4895],[80.85701,28.49705],[80.8462,28.49535],[80.84526,28.49966],[80.83171,28.51168],[80.81718,28.5206],[80.80147,28.52106],[80.79071,28.52431],[80.78625,28.52922],[80.79124,28.54331],[80.77124,28.54965],[80.76968,28.56556],[80.74011,28.57416],[80.74046,28.56582],[80.72622,28.57475],[80.71632,28.56783],[80.70561,28.57871],[80.69197,28.58702],[80.69741,28.60332],[80.67908,28.60429],[80.68125,28.62041],[80.67245,28.62829],[80.6693,28.64184],[80.65292,28.63387],[80.6432,28.64322],[80.63496,28.63727],[80.61326,28.63925],[80.60793,28.65232],[80.5914,28.64769],[80.59928,28.65591],[80.58187,28.66123],[80.59209,28.67968],[80.57036,28.68786],[80.55177,28.69153],[80.54153,28.69059],[80.50783,28.67095],[80.50521,28.66517],[80.52329,28.57685],[80.52729,28.5732],[80.53157,28.57483],[80.5324,28.57221],[80.52463,28.55293],[80.52159,28.55423],[80.51931,28.55176],[80.50812,28.56801],[80.50147,28.56965],[80.48279,28.58531],[80.46993,28.58333],[80.47267,28.58454],[80.47343,28.59018],[80.46198,28.61374],[80.46601,28.61489],[80.4613,28.6175],[80.46339,28.61858],[80.46223,28.62158],[80.4533,28.62858],[80.44428,28.62844],[80.43936,28.63528],[80.4201,28.63898],[80.37804,28.62828],[80.37299,28.62907],[80.36926,28.63519],[80.36242,28.63547],[80.35888,28.64063],[80.36206,28.64533],[80.32759,28.6663],[80.32293,28.68123],[80.3236,28.69138],[80.31897,28.69979],[80.3006,28.70638],[80.29534,28.71128],[80.27926,28.70993],[80.25789,28.72934],[80.26469,28.73425],[80.26676,28.74349],[80.26263,28.75032],[80.25315,28.75734],[80.24315,28.75611],[80.23517,28.75925],[80.21774,28.75534],[80.17262,28.78232],[80.14014,28.81382],[80.11979,28.82876],[80.07665,28.82433],[80.06641,28.83732],[80.06015,28.91638],[80.09773,28.97526],[80.10192,28.98643],[80.11961,28.98165],[80.12848,29.006],[80.13727,29.00725],[80.13795,29.00956],[80.12625,29.01303],[80.13303,29.03037],[80.12812,29.03169],[80.13816,29.05886],[80.13017,29.06104],[80.14605,29.10298],[80.1656,29.11695],[80.16946,29.12573],[80.17978,29.12851],[80.18514,29.13707],[80.20512,29.12932],[80.21139,29.12182],[80.23497,29.11845],[80.2505,29.12895],[80.25577,29.13794],[80.27335,29.14207],[80.27353,29.14667],[80.26004,29.16576],[80.26232,29.17465],[80.25961,29.18733],[80.24248,29.20244],[80.25,29.22099],[80.2577,29.21942],[80.2625,29.2067],[80.27668,29.20705],[80.28892,29.19517],[80.29495,29.19725],[80.29897,29.20507],[80.29571,29.21116],[80.29774,29.22138],[80.29238,29.23156],[80.30204,29.2421],[80.30086,29.26054],[80.30569,29.27281],[80.30598,29.28527],[80.31964,29.30163],[80.31762,29.3082],[80.31861,29.31476],[80.31009,29.32281],[80.29789,29.32421],[80.29258,29.33065],[80.29221,29.3367],[80.28182,29.34624],[80.28102,29.35943],[80.27281,29.3645],[80.27299,29.37366],[80.28061,29.37854],[80.27462,29.38618],[80.27634,29.39301],[80.24766,29.40738],[80.24333,29.41159],[80.24764,29.41609],[80.24567,29.42346],[80.24915,29.43469],[80.24464,29.44377],[80.2469,29.44648],[80.25732,29.44805],[80.25982,29.45179],[80.26859,29.44853],[80.27146,29.45066],[80.27597,29.44952],[80.27573,29.45262],[80.27086,29.45503],[80.2779,29.45854],[80.28217,29.4576],[80.28067,29.45392],[80.28217,29.45091],[80.29004,29.45007],[80.29614,29.45376],[80.29933,29.4508],[80.30419,29.45309],[80.28916,29.47281],[80.28833,29.47687],[80.29472,29.47888],[80.298,29.48344],[80.29774,29.48805],[80.30077,29.49058],[80.30619,29.486],[80.31475,29.48451],[80.31555,29.49905],[80.3304,29.50533],[80.33402,29.51291],[80.34297,29.50996],[80.35135,29.51891],[80.35021,29.52413],[80.35717,29.52779],[80.35969,29.53252],[80.35026,29.54047],[80.34353,29.54032],[80.34736,29.5486],[80.34439,29.55291],[80.36573,29.55661],[80.36534,29.56407],[80.38053,29.56132],[80.38081,29.57148],[80.38964,29.57175],[80.39315,29.58161],[80.4097,29.59538],[80.41064,29.60474],[80.40742,29.61283],[80.41237,29.625],[80.41979,29.62637],[80.42265,29.62978],[80.42194,29.63913],[80.41574,29.64434],[80.41825,29.65096],[80.41623,29.65397],[80.41177,29.6537],[80.40738,29.66],[80.39982,29.65885],[80.40067,29.66239],[80.39258,29.66416],[80.39179,29.67107],[80.38621,29.6744],[80.38504,29.67948],[80.38695,29.68508],[80.38209,29.68855],[80.38158,29.70103],[80.37884,29.70245],[80.37373,29.71531],[80.37707,29.72027],[80.37015,29.7217],[80.36777,29.72485],[80.36785,29.72992],[80.37138,29.73443],[80.36589,29.73977],[80.3675,29.74777],[80.37045,29.75099],[80.37407,29.74916],[80.38749,29.75042],[80.38687,29.75854],[80.39185,29.76038],[80.39925,29.75929],[80.39807,29.7651],[80.4016,29.77384],[80.40635,29.7784],[80.40538,29.78177],[80.40884,29.78401],[80.4086,29.79445],[80.41484,29.79185],[80.41768,29.79571],[80.43064,29.79811],[80.43646,29.80602],[80.44588,29.79913],[80.45594,29.80244],[80.46566,29.80228],[80.48128,29.7957],[80.49507,29.79554],[80.49443,29.80205],[80.502,29.80871],[80.49912,29.81158],[80.50899,29.82311],[80.52348,29.82705],[80.52553,29.83209],[80.52989,29.83355],[80.53291,29.83822],[80.53756,29.83867],[80.54063,29.84716],[80.5454,29.84628],[80.55443,29.85041],[80.55326,29.85652],[80.55652,29.86205],[80.56331,29.86641],[80.55862,29.87062],[80.56765,29.87922],[80.57437,29.89527],[80.57143,29.90902],[80.57598,29.92348],[80.5831,29.93633],[80.59712,29.95306],[80.60566,29.95889],[80.63156,29.96516],[80.63967,29.96287],[80.65034,29.95593],[80.65853,29.95521],[80.67967,29.95891],[80.69177,29.97418],[80.71406,29.99019],[80.7211,30.00018],[80.73982,29.99953],[80.74941,30.00658],[80.75927,30.02391],[80.75744,30.03962],[80.76295,30.04952],[80.78119,30.05668],[80.79158,30.07312],[80.80123,30.0809],[80.80754,30.08967],[80.8157,30.09298],[80.81717,30.09638],[80.82348,30.09982],[80.82799,30.10006],[80.8318,30.09717],[80.84246,30.09943],[80.84764,30.10471],[80.84359,30.11044],[80.84604,30.11555],[80.86426,30.12095],[80.87969,30.12925],[80.8803,30.13298],[80.87266,30.15327],[80.87288,30.16132],[80.84164,30.19322],[80.83415,30.20528],[80.82915,30.20803],[80.82098,30.22395],[80.81379,30.22605],[80.79675,30.23909],[80.79035,30.24666],[80.78316,30.26167],[80.76881,30.27769],[80.76346,30.2789],[80.7621,30.29542],[80.75765,30.30619],[80.73813,30.30838],[80.73476,30.31711],[80.71943,30.32527],[80.71686,30.32908],[80.70249,30.33443],[80.68695,30.33279],[80.6687,30.34295],[80.66123,30.35356],[80.65594,30.37886],[80.64045,30.38873],[80.63446,30.40427],[80.62877,30.40918],[80.63041,30.41705],[80.62487,30.42147],[80.624,30.43155],[80.61343,30.44418],[80.60358,30.44761],[80.59458,30.44767],[80.5697,30.44124],[80.55427,30.42663],[80.55,30.43144],[80.54809,30.43877],[80.54962,30.44334],[80.56168,30.45006],[80.56697,30.45562],[80.56727,30.45942],[80.57751,30.45989],[80.58555,30.46431],[80.59831,30.46345],[80.60088,30.46712],[80.60866,30.46716],[80.61121,30.45931],[80.61535,30.45493],[80.62679,30.45831],[80.63969,30.44642],[80.64426,30.44637],[80.66072,30.43861],[80.6701,30.42952],[80.67909,30.42557],[80.67919,30.41953],[80.68837,30.41644],[80.69209,30.4102],[80.70193,30.40907],[80.70592,30.41279],[80.71053,30.41321],[80.7196,30.40875],[80.72953,30.39843],[80.73619,30.39667],[80.75154,30.38195],[80.75279,30.37561],[80.76401,30.36873],[80.76715,30.36896],[80.77879,30.35801],[80.78139,30.35191],[80.78863,30.35002],[80.78758,30.34161],[80.79362,30.33531],[80.80375,30.32995],[80.80555,30.32012],[80.82119,30.31883],[80.82834,30.31107],[80.83567,30.30964],[80.84918,30.31415],[80.86603,30.3103],[80.87478,30.30306],[80.87584,30.29862],[80.8873,30.29628],[80.89587,30.29957],[80.91039,30.3004],[80.91017,30.29297],[80.91739,30.28459],[80.92914,30.28019],[80.93374,30.27504],[80.92795,30.2701],[80.92844,30.26579],[80.93769,30.25952],[80.95102,30.26663],[80.98469,30.26873],[80.98878,30.26559],[80.99681,30.26463],[81.02428,30.24614],[81.0358,30.23431],[81.03058,30.23302],[81.02813,30.22933],[81.02754,30.22693],[81.0316,30.22439],[81.03061,30.22021],[81.04158,30.21553],[81.04686,30.21021],[81.04504,30.20461],[81.03605,30.20164],[81.03532,30.19698],[81.04422,30.19363],[81.04562,30.18062],[81.05345,30.17898],[81.0587,30.16992],[81.06332,30.16782],[81.06584,30.15881],[81.07912,30.15491],[81.08489,30.14822],[81.08457,30.13578],[81.08001,30.12468],[81.08626,30.1169],[81.08622,30.10674],[81.08296,30.10055],[81.10005,30.10004],[81.10984,30.08805],[81.10896,30.07784],[81.10256,30.07483],[81.10064,30.0647],[81.09264,30.05424],[81.10839,30.04439],[81.1125,30.03567],[81.1199,30.03425],[81.12589,30.02015],[81.13509,30.01606],[81.14581,30.01628],[81.15109,30.01159],[81.16545,30.01054],[81.17943,30.01512],[81.18576,30.01081],[81.19657,30.0229],[81.20572,30.02203],[81.21596,30.01405],[81.21921,30.00732],[81.23346,30.00771],[81.2417,30.01258],[81.24715,30.01123],[81.2554,30.01971],[81.25501,30.02365],[81.23917,30.03185],[81.25177,30.03863],[81.26378,30.03995],[81.26574,30.04337],[81.27372,30.04528],[81.27319,30.0515],[81.27636,30.05907],[81.28027,30.06069],[81.28149,30.06606],[81.28923,30.06983],[81.29131,30.07436],[81.28773,30.07847],[81.29072,30.08332],[81.28891,30.08833],[81.29096,30.0948],[81.28697,30.10516],[81.29003,30.10681],[81.29226,30.11255],[81.28697,30.11583],[81.28429,30.12303],[81.28045,30.12474],[81.27414,30.13335],[81.26439,30.13765],[81.25801,30.14657],[81.25985,30.15133],[81.30619,30.15965],[81.30663,30.16429],[81.31094,30.16144],[81.31129,30.15682],[81.31853,30.152],[81.3339,30.15325],[81.33587,30.16044],[81.3524,30.17808],[81.37201,30.18663],[81.37632,30.19674],[81.39822,30.20903],[81.39702,30.21436],[81.39876,30.21862],[81.39206,30.23372],[81.3982,30.24249],[81.39378,30.25057],[81.41019,30.2611],[81.41838,30.2817],[81.41702,30.28417],[81.40137,30.2816],[81.40534,30.28519],[81.40369,30.29313],[81.4121,30.29507],[81.41871,30.30264],[81.42506,30.30514],[81.41651,30.31646],[81.40716,30.31616],[81.39818,30.32346],[81.4076,30.33668],[81.40433,30.34412],[81.40782,30.35321],[81.40115,30.3577],[81.40157,30.3647],[81.39706,30.36799],[81.40086,30.37122],[81.42189,30.37062],[81.43113,30.38345],[81.42247,30.38543],[81.42199,30.38902],[81.4184,30.38903],[81.41371,30.39365],[81.40247,30.39627],[81.40683,30.40552],[81.40458,30.40998],[81.40837,30.41401],[81.40983,30.42112],[81.42947,30.42197],[81.43574,30.41286],[81.44041,30.41874],[81.44681,30.41596],[81.45776,30.40657],[81.46951,30.40333],[81.478,30.38869],[81.49126,30.38132],[81.50865,30.38073],[81.53689,30.37136],[81.54833,30.37223],[81.55363,30.36987],[81.55745,30.37407],[81.55162,30.38105],[81.55259,30.4027],[81.55519,30.40669],[81.56127,30.40748],[81.55967,30.41953],[81.56263,30.42808],[81.56656,30.42988],[81.57608,30.4267],[81.58478,30.42294],[81.59109,30.41684],[81.60862,30.41222],[81.62376,30.42443],[81.61974,30.44595],[81.63593,30.44512],[81.64102,30.44062],[81.64838,30.43981],[81.67414,30.42765],[81.69665,30.42385],[81.71619,30.41184],[81.72866,30.41136],[81.73108,30.40924],[81.73352,30.39833],[81.75295,30.38882],[81.76402,30.38913],[81.77588,30.38439],[81.79257,30.38903],[81.79946,30.38671],[81.81083,30.3873],[81.82822,30.3751],[81.84239,30.37664],[81.85173,30.37317],[81.85173,30.37647],[81.85572,30.37939],[81.86954,30.37736],[81.87991,30.36953],[81.88401,30.36083],[81.89056,30.36083],[81.89394,30.35749],[81.90614,30.35331],[81.91125,30.35377],[81.91634,30.35002],[81.92141,30.35117],[81.94135,30.34759],[81.94689,30.34995],[81.94789,30.3571],[81.95119,30.35898],[81.96406,30.35082],[81.964,30.3462],[81.95852,30.34128],[81.97094,30.33795],[81.97667,30.32987],[81.98425,30.3294],[81.99028,30.32083],[81.99562,30.32228],[82,30.32071],[82.00723,30.32905],[82.01402,30.32921],[82.01301,30.34187],[82.01816,30.34419],[82.02344,30.34443],[82.03284,30.33757],[82.04308,30.34098],[82.05787,30.33262],[82.05846,30.34014],[82.06207,30.34529],[82.0672,30.34731],[82.06779,30.35539],[82.07544,30.3588],[82.08721,30.3592],[82.09632,30.34999],[82.10168,30.34807],[82.10681,30.34959],[82.11305,30.34418],[82.1127,30.33499],[82.11564,30.32919],[82.12058,30.32684],[82.12297,30.32191],[82.11977,30.31964],[82.13017,30.3022],[82.11828,30.29425],[82.11982,30.29127],[82.11826,30.28612],[82.11431,30.27848],[82.1113,30.27722],[82.11809,30.27232],[82.11731,30.26425],[82.11996,30.26251],[82.12002,30.25886],[82.10926,30.25511],[82.10695,30.24433],[82.10028,30.23924],[82.11126,30.22603],[82.1295,30.22553],[82.13519,30.21933],[82.1329,30.21448],[82.13408,30.20759],[82.14147,30.20263],[82.141,30.19893],[82.15407,30.19421],[82.16063,30.18931],[82.18055,30.19247],[82.18636,30.19084],[82.18908,30.18505],[82.18579,30.18014],[82.18839,30.17294],[82.18333,30.16563],[82.18394,30.16089],[82.19535,30.15982],[82.20744,30.15365],[82.19945,30.14266],[82.20073,30.13629],[82.18885,30.13379],[82.18106,30.12919],[82.17849,30.12197],[82.1727,30.122],[82.17347,30.11765],[82.18115,30.11723],[82.18844,30.11096],[82.18132,30.10239],[82.18364,30.09629],[82.17898,30.08896],[82.17095,30.08649],[82.16776,30.08144],[82.1681,30.07609],[82.17379,30.06524],[82.19036,30.06978],[82.2127,30.0661],[82.22197,30.06829],[82.23312,30.06488],[82.23577,30.06978],[82.24861,30.07522],[82.25358,30.07249],[82.25455,30.06809],[82.25681,30.06911],[82.26743,30.06221],[82.28321,30.06117],[82.28714,30.04726],[82.30041,30.03791],[82.31184,30.03764],[82.31759,30.04035],[82.32187,30.04952],[82.33602,30.04692],[82.34552,30.03683],[82.34669,30.02889],[82.35116,30.02491],[82.35642,30.02582],[82.36141,30.02165],[82.36491,30.01045],[82.3746,30.01565],[82.37976,30.01119],[82.37786,30.02643],[82.38406,30.02714],[82.38912,30.02045],[82.39277,30.02393],[82.39741,30.02401],[82.40444,30.01458],[82.40838,30.0153],[82.41085,30.01076],[82.42286,30.00404],[82.4256,29.99582],[82.43406,29.98902],[82.4405,29.9887],[82.45821,29.97692],[82.45926,29.97991],[82.46513,29.98207],[82.46693,29.97878],[82.47808,29.97365],[82.47904,29.96902],[82.47579,29.96527],[82.50117,29.94603],[82.51607,29.95218],[82.53166,29.97117],[82.55129,29.96323],[82.55412,29.95954],[82.56502,29.95522],[82.56533,29.94265],[82.5686,29.93247],[82.5816,29.9216],[82.58671,29.9213],[82.60433,29.88906],[82.62161,29.87929],[82.63655,29.87632],[82.64424,29.87052],[82.64246,29.86293],[82.6334,29.85676],[82.63367,29.84962],[82.62444,29.84779],[82.62226,29.84504],[82.62088,29.84202],[82.62292,29.83729],[82.64165,29.83387],[82.6505,29.83828],[82.65769,29.83834],[82.66259,29.8423],[82.66794,29.84103],[82.67189,29.84397],[82.678,29.8433],[82.68636,29.84716],[82.68841,29.85209],[82.69915,29.85535],[82.71254,29.83882],[82.72411,29.83877],[82.72856,29.83531],[82.73249,29.82138],[82.73909,29.81353],[82.73107,29.80863],[82.73007,29.80294],[82.72193,29.80022],[82.71221,29.79278],[82.70272,29.79482],[82.69606,29.79117],[82.69803,29.78163],[82.68845,29.77347],[82.69203,29.76312],[82.69967,29.76166],[82.7092,29.76514],[82.71302,29.76894],[82.72096,29.76613],[82.72577,29.77052],[82.7467,29.76948],[82.75416,29.76557],[82.76052,29.7601],[82.76342,29.74749],[82.7687,29.74245],[82.76822,29.73378],[82.76489,29.73117],[82.79959,29.71903],[82.80909,29.72158],[82.81986,29.72113],[82.82335,29.71381],[82.81696,29.70474],[82.82005,29.69688],[82.82842,29.68987],[82.83525,29.68929],[82.84061,29.69178],[82.86266,29.68456],[82.87028,29.68626],[82.87882,29.69197],[82.88817,29.69274],[82.88987,29.69968],[82.89292,29.7014],[82.90099,29.70263],[82.91028,29.70039],[82.91702,29.70641],[82.92154,29.70603],[82.92874,29.70062],[82.93745,29.70546],[82.94448,29.69535],[82.95043,29.69157],[82.94293,29.67411],[82.94882,29.67323],[82.94931,29.66892],[82.95769,29.66264],[82.96702,29.66248],[82.97511,29.66709],[82.98702,29.66844],[82.99365,29.66336],[83.00253,29.66457],[83.01059,29.67255],[83.01577,29.66494],[83.01607,29.66042],[83.02305,29.65773],[83.02305,29.65067],[83.03547,29.6542],[83.04044,29.64793],[83.04537,29.63083],[83.0566,29.62672],[83.06746,29.62606],[83.0674,29.61653],[83.07136,29.60991],[83.08362,29.60669],[83.0877,29.60274],[83.09431,29.6054],[83.09152,29.60843],[83.09217,29.61198],[83.10313,29.6143],[83.10742,29.61838],[83.11851,29.61641],[83.11885,29.62476],[83.12236,29.62857],[83.13354,29.61787],[83.13772,29.62247],[83.14405,29.62483],[83.14703,29.62255],[83.15208,29.62382],[83.16716,29.61596],[83.16109,29.59638],[83.18202,29.59297],[83.19044,29.59745],[83.18827,29.60592],[83.18972,29.60827],[83.19885,29.61112],[83.20088,29.60623],[83.20715,29.60753],[83.22015,29.60547],[83.21652,29.58926],[83.23151,29.58144],[83.23405,29.57784],[83.26322,29.57758],[83.26351,29.57364],[83.27148,29.56828],[83.28013,29.5688],[83.28604,29.56286],[83.28417,29.55755],[83.27599,29.55445],[83.27084,29.55662],[83.26598,29.55495],[83.2574,29.55676],[83.26086,29.55103],[83.25625,29.54462],[83.25792,29.53925],[83.26588,29.53294],[83.26709,29.52609],[83.27081,29.5221],[83.26948,29.50742],[83.27362,29.50782],[83.27728,29.50263],[83.28413,29.4987],[83.29551,29.50437],[83.30437,29.49968],[83.3178,29.50892],[83.32246,29.50452],[83.33131,29.50358],[83.33413,29.49997],[83.34652,29.49477],[83.34933,29.49224],[83.34748,29.48922],[83.34997,29.48473],[83.34972,29.47854],[83.34411,29.47501],[83.34611,29.46842],[83.34441,29.46581],[83.35361,29.45881],[83.35585,29.45138],[83.36826,29.45002],[83.36516,29.4462],[83.36647,29.43972],[83.37277,29.43434],[83.37347,29.42852],[83.37918,29.42731],[83.38319,29.42315],[83.41637,29.42081],[83.41803,29.41037],[83.42827,29.4024],[83.42251,29.39743],[83.42473,29.38464],[83.41387,29.38027],[83.41753,29.37602],[83.41524,29.36686],[83.41943,29.36359],[83.41719,29.35901],[83.41935,29.35624],[83.42555,29.35628],[83.43074,29.34977],[83.44002,29.3501],[83.4444,29.34491],[83.44702,29.3402],[83.44449,29.33568],[83.4486,29.32907],[83.44144,29.31688],[83.44031,29.30882],[83.4463,29.30645],[83.44574,29.29976],[83.45347,29.2975],[83.45258,29.29385],[83.45779,29.29087],[83.45695,29.28651],[83.46204,29.28612],[83.4647,29.27661],[83.47146,29.27353],[83.48085,29.281],[83.48972,29.27996],[83.48935,29.27614],[83.49553,29.27377],[83.49362,29.26479],[83.5048,29.25946],[83.50625,29.25554],[83.51688,29.25579],[83.51814,29.24805],[83.52159,29.24503],[83.51984,29.24055],[83.52486,29.23823],[83.51721,29.22798],[83.52023,29.22663],[83.51992,29.22042],[83.52231,29.21711],[83.53252,29.21334],[83.53234,29.20917],[83.53811,29.20379],[83.55339,29.2],[83.55757,29.20397],[83.56527,29.20603],[83.57413,29.20248],[83.57136,29.19342],[83.57202,29.19043],[83.57813,29.18737],[83.57813,29.18015],[83.59224,29.17414],[83.61228,29.18072],[83.61679,29.1713],[83.62488,29.16827],[83.63545,29.15841],[83.64374,29.16117],[83.64646,29.16374],[83.64603,29.16699],[83.65169,29.16841],[83.65946,29.17607],[83.66817,29.16966],[83.66414,29.1649],[83.66415,29.16481],[83.66414,29.1649],[83.66817,29.16966],[83.65946,29.17607],[83.66564,29.18402],[83.66019,29.18742],[83.66058,29.19602],[83.65796,29.20392],[83.67709,29.20768],[83.6863,29.21306],[83.71335,29.24453],[83.72392,29.24152],[83.74272,29.24541],[83.76417,29.23993],[83.76967,29.24078],[83.77321,29.24677],[83.78016,29.24756],[83.78347,29.24434],[83.79938,29.25001],[83.79927,29.25346],[83.80438,29.25631],[83.79595,29.27342],[83.7966,29.27736],[83.79944,29.28178],[83.804,29.28177],[83.80995,29.28583],[83.813,29.29078],[83.81005,29.29462],[83.81468,29.29857],[83.81484,29.30201],[83.82522,29.30275],[83.83125,29.29828],[83.83712,29.30085],[83.84107,29.2981],[83.85018,29.29756],[83.85626,29.30159],[83.8588,29.30982],[83.87261,29.31233],[83.8895,29.32009],[83.90013,29.31878],[83.90688,29.3257],[83.92191,29.32324],[83.92959,29.31843],[83.93572,29.31969],[83.94318,29.31632],[83.94885,29.3165],[83.96569,29.33104],[83.97796,29.3286],[84.00107,29.31493],[84.00338,29.3107],[84.00163,29.30651],[83.99174,29.30325],[83.98989,29.30044],[84.00063,29.29482],[84.01272,29.29432],[84.01786,29.28894],[84.02538,29.28914],[84.02852,29.28556],[84.03226,29.29319],[84.04598,29.30076],[84.05518,29.29736],[84.05856,29.2903],[84.06542,29.28973],[84.0709,29.28525],[84.08269,29.28843],[84.08991,29.29454],[84.10168,29.29052],[84.11668,29.28021],[84.12227,29.27967],[84.11966,29.27674],[84.12399,29.2735],[84.12379,29.27029],[84.12079,29.26509],[84.1145,29.26297],[84.117,29.25856],[84.11395,29.25371],[84.11577,29.2518],[84.11446,29.24807],[84.11846,29.24412],[84.13013,29.24309],[84.14331,29.23615],[84.15954,29.24168],[84.18149,29.23771],[84.18499,29.24151],[84.19477,29.24413],[84.20316,29.24002],[84.20508,29.23657],[84.19996,29.22534],[84.20187,29.21388],[84.19045,29.20572],[84.17966,29.20674],[84.16647,29.1948],[84.16895,29.19026],[84.16441,29.1852],[84.17139,29.17208],[84.16807,29.16407],[84.16974,29.15736],[84.17552,29.14975],[84.17693,29.13081],[84.20309,29.12392],[84.20384,29.10372],[84.19814,29.09905],[84.19794,29.09293],[84.18826,29.08068],[84.19181,29.04688],[84.19857,29.0465],[84.21115,29.0536],[84.2237,29.05341],[84.2381,29.04452],[84.24442,29.0442],[84.25,29.03719],[84.25,29.01259],[84.24487,29.00684],[84.24345,29.00115],[84.243,29],[84.24163,28.99732],[84.2432,28.99219],[84.24041,28.98762],[84.24394,28.97605],[84.24146,28.96897],[84.23754,28.96833],[84.23744,28.96415],[84.23361,28.9596],[84.23147,28.9466],[84.22773,28.94168],[84.22674,28.92585],[84.22261,28.91556],[84.22759,28.90346],[84.2279,28.89415],[84.25596,28.89016],[84.26039,28.89547],[84.2677,28.89768],[84.27423,28.89269],[84.27616,28.88662],[84.2861,28.88259],[84.28995,28.87686],[84.31081,28.86929],[84.31776,28.86971],[84.32298,28.86735],[84.32576,28.86259],[84.33545,28.86459],[84.33726,28.86847],[84.34528,28.87287],[84.35916,28.85928],[84.37137,28.86076],[84.37741,28.86431],[84.4111,28.85347],[84.40983,28.84286],[84.4015,28.83721],[84.40278,28.83015],[84.41058,28.82861],[84.42104,28.83148],[84.42965,28.82347],[84.43748,28.82079],[84.43178,28.81321],[84.43421,28.80135],[84.44745,28.79325],[84.44611,28.78655],[84.44816,28.78313],[84.4387,28.76936],[84.45407,28.76468],[84.46257,28.7512],[84.46842,28.75167],[84.47779,28.74685],[84.48247,28.74704],[84.4855,28.74138],[84.49404,28.73463],[84.50206,28.74274],[84.51689,28.74847],[84.52707,28.74209],[84.53587,28.74527],[84.54258,28.74413],[84.55888,28.75206],[84.55942,28.74686],[84.56952,28.74139],[84.57385,28.73507],[84.58898,28.73447],[84.59455,28.73649],[84.60795,28.73333],[84.61754,28.73658],[84.62852,28.73637],[84.63159,28.73257],[84.64573,28.72513],[84.64665,28.71984],[84.65293,28.71432],[84.65281,28.7023],[84.6637,28.69866],[84.66869,28.69413],[84.67108,28.68988],[84.67053,28.68329],[84.67823,28.67893],[84.6904,28.67871],[84.69863,28.67168],[84.70714,28.67098],[84.69942,28.65338],[84.70395,28.64727],[84.69697,28.63632],[84.71598,28.63286],[84.72379,28.62734],[84.72738,28.6205],[84.73899,28.61677],[84.74908,28.61819],[84.75751,28.61344],[84.78289,28.60937],[84.85929,28.57047],[84.86927,28.58151],[84.88827,28.58253],[84.8925,28.58857],[84.90137,28.58978],[84.90318,28.59315],[84.90919,28.58804],[84.91496,28.58954],[84.92189,28.59513],[84.94712,28.59469],[84.9511,28.58005],[84.98563,28.59127],[84.99507,28.59968],[84.98831,28.60498],[84.99106,28.61277],[85.00244,28.62275],[85.01115,28.63696],[85.01935,28.63932],[85.02524,28.64881],[85.0331,28.65597],[85.04257,28.65787],[85.04342,28.66831],[85.05427,28.66992],[85.05594,28.68029],[85.06083,28.6823],[85.07353,28.67839],[85.08618,28.67083],[85.09105,28.67151],[85.09669,28.67821],[85.11762,28.68642],[85.13465,28.6758],[85.13729,28.66644],[85.14791,28.66086],[85.14739,28.65638],[85.15661,28.64862],[85.15943,28.64284],[85.18342,28.64433],[85.19074,28.64092],[85.18706,28.63213],[85.20027,28.62657],[85.19958,28.6207],[85.19122,28.60486],[85.17591,28.59731],[85.17748,28.59203],[85.18359,28.58732],[85.18378,28.57882],[85.19381,28.56888],[85.18698,28.56124],[85.1912,28.54711],[85.18876,28.53344],[85.16837,28.53194],[85.16835,28.52116],[85.15925,28.50938],[85.15927,28.49777],[85.15514,28.49039],[85.14675,28.48545],[85.12882,28.48769],[85.12074,28.48541],[85.11554,28.47948],[85.11486,28.47121],[85.10175,28.45671],[85.10505,28.44767],[85.11654,28.44303],[85.11491,28.43317],[85.11971,28.41563],[85.11807,28.40866],[85.12887,28.39224],[85.12423,28.38576],[85.12412,28.37252],[85.11743,28.36698],[85.11019,28.34641],[85.09523,28.34447],[85.08278,28.34569],[85.08278,28.34569],[85.09523,28.34447],[85.11019,28.34641],[85.12301,28.33557],[85.13089,28.33788],[85.14262,28.33027],[85.16907,28.33143],[85.18353,28.32408],[85.2047,28.34047],[85.24371,28.31762],[85.24936,28.30304],[85.25703,28.29427],[85.27273,28.2972],[85.27583,28.29361],[85.27517,28.28759],[85.29475,28.28726],[85.30036,28.29056],[85.30583,28.28971],[85.34264,28.30376],[85.35046,28.30151],[85.35053,28.2883],[85.37245,28.28557],[85.37783,28.28259],[85.37991,28.27838],[85.39423,28.28833],[85.39998,28.2981],[85.41431,28.30816],[85.41639,28.31586],[85.41542,28.32359],[85.41766,28.32693],[85.43251,28.33007],[85.43965,28.33459],[85.46028,28.33682],[85.48966,28.33099],[85.50882,28.33381],[85.52834,28.32815],[85.55007,28.31494],[85.56405,28.30962],[85.57822,28.31015],[85.58307,28.3061],[85.59425,28.30846],[85.6029,28.30415],[85.59893,28.29882],[85.60127,28.27905],[85.60592,28.26444],[85.61099,28.25667],[85.63774,28.27372],[85.64742,28.28959],[85.66303,28.30276],[85.66364,28.30568],[85.65607,28.31727],[85.6667,28.33154],[85.66806,28.34783],[85.67851,28.3505],[85.68851,28.34675],[85.68623,28.38227],[85.69764,28.38553],[85.71433,28.38567],[85.72007,28.37537],[85.72664,28.37316],[85.72122,28.36714],[85.72225,28.35927],[85.72435,28.35354],[85.7286,28.35047],[85.7308,28.34237],[85.73458,28.33914],[85.72985,28.32865],[85.73821,28.32343],[85.73956,28.31906],[85.73867,28.2992],[85.73537,28.29108],[85.74054,28.28453],[85.74176,28.27591],[85.74526,28.27152],[85.74535,28.25669],[85.75071,28.24889],[85.75118,28.23795],[85.75663,28.23471],[85.75934,28.22873],[85.76628,28.22714],[85.77637,28.21789],[85.7787,28.20838],[85.78446,28.20827],[85.80234,28.1962],[85.81802,28.20315],[85.82039,28.19373],[85.83127,28.18484],[85.85085,28.18395],[85.85364,28.16697],[85.86167,28.16111],[85.86413,28.15108],[85.87428,28.14422],[85.87164,28.13516],[85.87246,28.12354],[85.88101,28.11718],[85.8912,28.1164],[85.90039,28.10884],[85.9014,28.09781],[85.90565,28.089],[85.90311,28.08495],[85.90304,28.07804],[85.89869,28.07407],[85.89898,28.0672],[85.90312,28.06141],[85.90324,28.05366],[85.91724,28.04914],[85.93818,28.02393],[85.94423,28.02286],[85.9562,28.0143],[85.96677,28.00192],[85.97669,28.00084],[85.97948,27.99647],[85.98065,27.98765],[85.96211,27.96733],[85.96017,27.95653],[85.95062,27.94183],[85.96994,27.9323],[85.99073,27.91745],[86.00376,27.91089],[86.01611,27.91487],[86.02554,27.90739],[86.042,27.9039],[86.04973,27.90631],[86.06717,27.8995],[86.07177,27.90542],[86.06886,27.91084],[86.07737,27.91058],[86.09281,27.9198],[86.10639,27.92461],[86.12634,27.92739],[86.12863,27.93346],[86.12603,27.94135],[86.11775,27.94526],[86.1095,27.95562],[86.11183,27.96125],[86.10594,27.98397],[86.09818,27.99865],[86.08468,28.01342],[86.08175,28.02012],[86.09283,28.03295],[86.08978,28.0402],[86.09144,28.04359],[86.08987,28.04911],[86.09198,28.05737],[86.09721,28.06163],[86.09,28.07365],[86.08514,28.0907],[86.09449,28.09759],[86.10648,28.09279],[86.12022,28.09116],[86.13256,28.0999],[86.13525,28.1058],[86.13472,28.1164],[86.14286,28.11754],[86.14438,28.12585],[86.15471,28.13024],[86.16265,28.13778],[86.16852,28.13788],[86.18048,28.14334],[86.18129,28.14909],[86.17823,28.15463],[86.1786,28.16235],[86.17623,28.16804],[86.1891,28.17394],[86.19496,28.1665],[86.19449,28.16018],[86.19968,28.15612],[86.19794,28.15109],[86.19956,28.13804],[86.20355,28.13374],[86.20793,28.13285],[86.22222,28.11142],[86.22087,28.10875],[86.2249,28.09553],[86.21012,28.0941],[86.21007,28.08917],[86.20655,28.08378],[86.212,28.07213],[86.21418,28.05875],[86.21933,28.0509],[86.21776,28.0461],[86.21995,28.04004],[86.2272,28.03283],[86.2276,28.02841],[86.22341,28.02292],[86.22245,28.0098],[86.22883,27.98134],[86.23557,27.97396],[86.25137,27.97485],[86.26879,27.98021],[86.28345,27.97688],[86.29116,27.97814],[86.29895,27.97277],[86.30214,27.9674],[86.302,27.96096],[86.30644,27.95534],[86.30981,27.95601],[86.31469,27.95001],[86.32116,27.94763],[86.33772,27.96484],[86.33788,27.95977],[86.34186,27.95333],[86.34002,27.94921],[86.35034,27.93732],[86.36068,27.94116],[86.38371,27.93761],[86.39327,27.92563],[86.39946,27.92394],[86.40781,27.91645],[86.41315,27.90633],[86.43162,27.9093],[86.44486,27.90546],[86.44814,27.91174],[86.45801,27.91483],[86.46185,27.92206],[86.47229,27.92979],[86.46885,27.94107],[86.47179,27.94594],[86.49589,27.95217],[86.50012,27.95697],[86.51798,27.95636],[86.52186,27.94659],[86.51458,27.967],[86.52256,27.97412],[86.51786,27.97748],[86.51525,27.9845],[86.51819,27.98975],[86.51745,28.00124],[86.52221,28.00496],[86.52357,28.0191],[86.53387,28.02691],[86.53283,28.03173],[86.53579,28.03786],[86.53608,28.04695],[86.53893,28.05059],[86.55132,28.05051],[86.55822,28.05652],[86.56065,28.06321],[86.56776,28.06875],[86.56103,28.07763],[86.56212,28.08246],[86.56928,28.0916],[86.56427,28.10146],[86.56476,28.10692],[86.57068,28.11158],[86.57465,28.11043],[86.57683,28.11282],[86.5908,28.10784],[86.59249,28.10393],[86.60679,28.0999],[86.61044,28.09192],[86.60503,28.08732],[86.61078,28.07577],[86.61641,28.07328],[86.62795,28.074],[86.63724,28.07048],[86.65241,28.0746],[86.66038,28.08085],[86.66605,28.09774],[86.69154,28.10842],[86.71043,28.10577],[86.7179,28.10768],[86.72913,28.10344],[86.74072,28.10354],[86.75076,28.09471],[86.74983,28.08584],[86.75329,28.0811],[86.76738,28.07438],[86.75766,28.06794],[86.7534,28.05342],[86.74931,28.05031],[86.74964,28.04543],[86.75536,28.03768],[86.76111,28.03477],[86.77579,28.03782],[86.78256,28.03138],[86.78175,28.0271],[86.79255,28.01868],[86.80513,28.02336],[86.81428,28.0188],[86.82122,28.01992],[86.83055,28.01502],[86.83828,28.01509],[86.84977,28.01959],[86.85058,28.02454],[86.8545,28.02745],[86.86989,28.02501],[86.87497,28.0219],[86.87344,28.01347],[86.87551,28.01025],[86.88412,28.00258],[86.8915,27.99947],[86.89239,27.99671],[86.92782,27.98763],[86.92837,27.98414],[86.93554,27.97783],[86.93494,27.96549],[86.93688,27.96175],[86.95192,27.9566],[86.9756,27.95411],[86.98485,27.94931],[86.99468,27.95457],[87.01129,27.95324],[87.0182,27.95747],[87.02666,27.94977],[87.04161,27.95017],[87.05587,27.92636],[87.06826,27.92369],[87.08076,27.91544],[87.0803,27.90261],[87.09104,27.88934],[87.09131,27.88238],[87.10632,27.87789],[87.10967,27.8747],[87.11064,27.85406],[87.11839,27.8401],[87.12443,27.83905],[87.12883,27.83396],[87.14299,27.83689],[87.15528,27.82943],[87.15923,27.82424],[87.17443,27.82087],[87.18565,27.82202],[87.19568,27.81974],[87.22032,27.82335],[87.22611,27.82254],[87.22818,27.81947],[87.24116,27.83923],[87.25249,27.84283],[87.26295,27.8507],[87.28729,27.84428],[87.29042,27.84574],[87.30612,27.84321],[87.30697,27.83524],[87.32038,27.8255],[87.34038,27.82968],[87.34804,27.82762],[87.35048,27.83017],[87.35514,27.82736],[87.36013,27.82759],[87.36319,27.82865],[87.37637,27.84507],[87.40513,27.85167],[87.42111,27.86226],[87.42818,27.85855],[87.42848,27.85192],[87.43571,27.84597],[87.43429,27.84216],[87.41141,27.83857],[87.40615,27.83383],[87.42519,27.83136],[87.45233,27.82207],[87.46193,27.82579],[87.47727,27.83607],[87.47828,27.83951],[87.49264,27.84623],[87.49556,27.84369],[87.51141,27.84685],[87.52334,27.84333],[87.53367,27.84521],[87.5385,27.84291],[87.55024,27.85297],[87.55468,27.86493],[87.56498,27.8668],[87.57388,27.86112],[87.58134,27.86176],[87.5889,27.8526],[87.59355,27.83325],[87.59205,27.82015],[87.60406,27.82086],[87.61402,27.81033],[87.6166,27.81135],[87.61941,27.81867],[87.63457,27.82454],[87.63508,27.83236],[87.63837,27.83414],[87.66764,27.83619],[87.67207,27.83464],[87.67231,27.82983],[87.6656,27.82237],[87.66778,27.81977],[87.66628,27.81716],[87.66803,27.80663],[87.68794,27.81201],[87.70122,27.81194],[87.70674,27.80989],[87.71336,27.81089],[87.72792,27.80505],[87.73889,27.81277],[87.73644,27.81887],[87.74636,27.83495],[87.756,27.83568],[87.76874,27.85929],[87.78123,27.86566],[87.7796,27.86787],[87.78121,27.87163],[87.77799,27.87771],[87.78718,27.89914],[87.80669,27.9087],[87.80845,27.9142],[87.81615,27.92123],[87.82146,27.92142],[87.82428,27.91878],[87.82727,27.91994],[87.82981,27.92964],[87.82733,27.93641],[87.83439,27.95264],[87.8496,27.94611],[87.85282,27.94831],[87.85957,27.94774],[87.86185,27.93644],[87.85661,27.92851],[87.8629,27.9237],[87.86849,27.91055],[87.87931,27.91456],[87.89045,27.90992],[87.90179,27.91093],[87.91045,27.91668],[87.93477,27.91766],[87.94174,27.91058],[87.95831,27.90883],[87.9691,27.89295],[87.98745,27.88571],[88.00502,27.89787],[88.01893,27.89837],[88.0242,27.89638],[88.02892,27.9044],[88.03268,27.90566],[88.0566,27.8966],[88.06082,27.88823],[88.06706,27.88609],[88.07462,27.89349],[88.08677,27.89526],[88.09212,27.88719],[88.09361,27.87116],[88.09843,27.86696],[88.11499,27.86821],[88.12907,27.88147],[88.13752,27.88148],[88.14196,27.87745],[88.15139,27.87653],[88.15653,27.8705],[88.16683,27.86817],[88.18097,27.85647],[88.19866,27.85407],[88.20064,27.84545],[88.20406,27.84243],[88.20389,27.83722],[88.19718,27.83548],[88.1901,27.8251],[88.17576,27.82024],[88.17615,27.81724],[88.18788,27.81036],[88.18946,27.80118],[88.19992,27.79058],[88.19798,27.7863],[88.18389,27.77565],[88.18603,27.76604],[88.17937,27.75811],[88.18118,27.74679],[88.17235,27.74137],[88.16105,27.74055],[88.15889,27.7363],[88.15803,27.71718],[88.15008,27.70273],[88.1574,27.69042],[88.15142,27.68377],[88.14724,27.66538],[88.13982,27.65725],[88.13389,27.65508],[88.12268,27.64532],[88.12325,27.63921],[88.11986,27.62954],[88.12211,27.627],[88.11791,27.62074],[88.11628,27.61036],[88.10823,27.60226],[88.09225,27.59486],[88.08458,27.58474],[88.07781,27.5718],[88.08366,27.56458],[88.07864,27.55846],[88.07184,27.55557],[88.07114,27.54614],[88.06351,27.5398],[88.06161,27.53484],[88.06244,27.53123],[88.06788,27.52931],[88.0698,27.52606],[88.06402,27.52505],[88.06003,27.51764],[88.06415,27.51185],[88.05745,27.5044],[88.04915,27.50121],[88.04635,27.49572],[88.04656,27.47823],[88.05107,27.47223],[88.05933,27.46724],[88.06306,27.46086],[88.06965,27.45763],[88.06713,27.45351],[88.07512,27.44501],[88.07056,27.43806],[88.08283,27.42955],[88.08268,27.42644],[88.06974,27.425],[88.05316,27.41265],[88.05215,27.40689],[88.04952,27.40513],[88.05103,27.40055],[88.04428,27.37175],[88.05204,27.3591],[88.06022,27.35537],[88.06921,27.33564],[88.06274,27.32819],[88.05512,27.32423],[88.05113,27.31239],[88.04412,27.30407],[88.0474,27.29343],[88.04072,27.29143],[88.03431,27.28594],[88.03345,27.24973],[88.03029,27.24906],[88.02681,27.24174],[88.02741,27.23696],[88.02183,27.23559],[88.02148,27.22475],[88.01477,27.21573],[88.01823,27.21055],[88.01426,27.20347],[88.01859,27.19586],[88.01506,27.17725],[88.02195,27.17071],[88.01357,27.16548],[88.00999,27.14297],[88.00326,27.13992],[88.00124,27.13333],[87.9938,27.13048],[87.99002,27.11902],[87.99421,27.10512],[87.99784,27.10316],[88.006,27.10412],[88.01447,27.09708],[88.01856,27.0881],[88.0237,27.0874],[88.02352,27.08211],[88.01864,27.07669],[88.01885,27.07349],[88.0238,27.06896],[88.03016,27.05069],[88.03756,27.0429],[88.04022,27.03629],[88.04837,27.03636],[88.06229,27.02878],[88.08022,27.03502],[88.08561,27.02866],[88.0863,27.02247],[88.0912,27.01504],[88.0909,27.008],[88.09486,27.00418],[88.10176,27.00341],[88.11768,26.98847],[88.13162,26.9874],[88.13815,26.98455],[88.12516,26.96802],[88.12571,26.95976],[88.12306,26.9501],[88.13131,26.93912],[88.14036,26.933],[88.14864,26.92068],[88.13898,26.89837],[88.14909,26.88847],[88.16001,26.8845],[88.16457,26.8803],[88.16922,26.87012],[88.17444,26.86899],[88.17613,26.86516],[88.17442,26.85997],[88.17711,26.85924],[88.17732,26.85306],[88.17002,26.84947],[88.17327,26.84487],[88.17015,26.83739],[88.17685,26.83317],[88.17443,26.82751],[88.18151,26.81622],[88.18015,26.80329],[88.19057,26.77135],[88.18898,26.73818],[88.18492,26.72719],[88.18464,26.71917],[88.16975,26.69925],[88.17045,26.68369],[88.16668,26.67822],[88.16567,26.64568],[88.16059,26.63977],[88.16308,26.63626],[88.15724,26.63014],[88.1495,26.62927],[88.14461,26.62548],[88.14173,26.60649],[88.13249,26.60099],[88.13451,26.59288],[88.12991,26.58156],[88.13248,26.57926],[88.1328,26.57339],[88.13103,26.5723],[88.12737,26.57728],[88.12555,26.57195],[88.12336,26.57542],[88.12021,26.57425],[88.12166,26.56784],[88.11619,26.57233],[88.11475,26.57106],[88.11426,26.56457],[88.11773,26.56576],[88.1132,26.56186],[88.11599,26.55797],[88.112,26.55672],[88.108,26.56061],[88.108,26.5504],[88.11411,26.54487],[88.10074,26.53706],[88.10206,26.53436],[88.10627,26.53604],[88.10533,26.53033],[88.10753,26.52766],[88.10569,26.51857],[88.09772,26.51613],[88.09915,26.51094],[88.09294,26.5065],[88.09522,26.50432],[88.10129,26.50544],[88.10286,26.49415],[88.10833,26.48916],[88.10288,26.47949],[88.10984,26.47489],[88.10701,26.47172],[88.10046,26.47228],[88.10619,26.46786],[88.10564,26.46545],[88.09448,26.46274],[88.09948,26.45194],[88.0984,26.43925],[88.08882,26.43195],[88.08119,26.41979],[88.07229,26.41314],[88.07395,26.40774],[88.06264,26.40936],[88.05815,26.40547],[88.058,26.40045],[88.05489,26.40069],[88.05415,26.39865],[88.0499,26.4008],[88.04763,26.39564],[88.04035,26.39357],[88.03907,26.39],[88.03685,26.39174],[88.03334,26.38203],[88.02973,26.38154],[88.03076,26.37867],[88.03395,26.37815],[88.02974,26.37075],[88.03334,26.36676],[88.03256,26.36464],[88.01022,26.36076],[88.00494,26.36625],[87.99798,26.36582],[87.9946,26.37112],[87.99419,26.39224],[87.96834,26.39685],[87.93505,26.41774],[87.92976,26.41757],[87.92858,26.42738],[87.91852,26.43152],[87.92791,26.43969],[87.92737,26.44522],[87.90125,26.44845],[87.91218,26.45747],[87.90259,26.47714],[87.89065,26.48639],[87.88812,26.47617],[87.86604,26.46765],[87.86511,26.46404],[87.86066,26.46326],[87.8622,26.45945],[87.86073,26.45598],[87.8651,26.45268],[87.86393,26.44859],[87.85351,26.44496],[87.8512,26.43616],[87.83074,26.43981],[87.83222,26.44991],[87.814,26.46153],[87.79533,26.46855],[87.79311,26.46609],[87.79147,26.46892],[87.78868,26.46701],[87.79231,26.46463],[87.78889,26.46542],[87.78814,26.46331],[87.79113,26.46117],[87.78491,26.45369],[87.78034,26.45341],[87.78149,26.45038],[87.77638,26.45013],[87.77917,26.4476],[87.77809,26.44255],[87.78027,26.44236],[87.777,26.44043],[87.77547,26.43576],[87.78031,26.43553],[87.77846,26.42967],[87.77509,26.42977],[87.77792,26.42692],[87.77304,26.42718],[87.77856,26.42493],[87.77557,26.42013],[87.77875,26.42159],[87.77524,26.41918],[87.77354,26.42156],[87.77009,26.41854],[87.77068,26.41495],[87.76809,26.41294],[87.76963,26.41101],[87.75634,26.40784],[87.74998,26.41753],[87.74163,26.41726],[87.73618,26.40745],[87.72538,26.41224],[87.72486,26.41889],[87.71626,26.42268],[87.71367,26.42703],[87.70099,26.42788],[87.69458,26.43531],[87.6802,26.43505],[87.68085,26.41549],[87.65278,26.40555],[87.65436,26.39318],[87.62998,26.3935],[87.61464,26.38984],[87.60971,26.38083],[87.60712,26.38046],[87.58959,26.38182],[87.59028,26.39227],[87.5761,26.39572],[87.55534,26.4054],[87.55004,26.4182],[87.53674,26.42127],[87.51889,26.4306],[87.46867,26.44],[87.44553,26.43274],[87.43026,26.42209],[87.39101,26.41874],[87.37858,26.4067],[87.37117,26.40774],[87.35887,26.38787],[87.35584,26.3717],[87.3608,26.36073],[87.34346,26.34742],[87.32437,26.35987],[87.31585,26.36728],[87.31482,26.37115],[87.3038,26.36594],[87.29193,26.3734],[87.26836,26.37355],[87.26681,26.38681],[87.26862,26.40531],[87.25873,26.41081],[87.25245,26.40913],[87.2491,26.41399],[87.23125,26.41337],[87.2262,26.40558],[87.22139,26.40287],[87.21969,26.40634],[87.2134,26.4092],[87.21381,26.4128],[87.18839,26.41393],[87.19151,26.40519],[87.16494,26.40372],[87.1415,26.41461],[87.09397,26.45002],[87.08263,26.5214],[87.07512,26.54164],[87.07424,26.58546],[87.04709,26.58695],[87.04478,26.56801],[87.01773,26.53178],[86.99326,26.52281],[86.98178,26.5248],[86.97754,26.51972],[86.96371,26.52345],[86.96178,26.52001],[86.9492,26.52063],[86.94702,26.51676],[86.93514,26.51649],[86.93086,26.49654],[86.93229,26.48928],[86.90653,26.48796],[86.89405,26.48576],[86.89257,26.48144]]]}}]}